NORAD_CAT_ID,OBJECT_NAME,OBJECT_TYPE,EPOCH,MEAN_MOTION,ECCENTRICITY,INCLINATION,RA_OF_ASC_NODE,ARG_OF_PERICENTER,MEAN_ANOMALY,BSTAR,MEAN_MOTION_DOT,MEAN_MOTION_DDOT,TLE_LINE0,TLE_LINE1,TLE_LINE2,SEMIMAJOR_AXIS,PERIOD,APOGEE,PERIGEE,DECAYED
52873.0,STARLINK-4211,PAYLOAD,2023-01-26 10:04:47,15.08841284,0.0001516,53.2154,84.0156,91.9337,268.1828,0.00020603,2.993e-05,0.0,0 STARLINK-4211,1 52873U 22062AV  23026.41998935  .00002993  00000-0  20603-3 0  9995,2 52873  53.2154  84.0156 0001516  91.9337 268.1828 15.08841284 34223,6917.876,95.437,540.79,538.693,0.0
52873.0,STARLINK-4211,PAYLOAD,2023-01-26 21:12:29,15.08833149,0.0001636,53.2154,81.9338,90.8958,269.2222,0.00056073,8.646e-05,0.0,0 STARLINK-4211,1 52873U 22062AV  23026.88367615  .00008646  00000-0  56073-3 0  9992,2 52873  53.2154  81.9338 0001636  90.8958 269.2222 15.08833149 34783,6917.901,95.438,540.898,538.635,0.0
52873.0,STARLINK-4211,PAYLOAD,2023-01-27 08:20:11,15.08837014,0.0001530999999999,53.2158,79.8521,93.8245,266.2922,0.00041152,6.267e-05,0.0,0 STARLINK-4211,1 52873U 22062AV  23027.34735755  .00006267  00000-0  41152-3 0  9997,2 52873  53.2158  79.8521 0001531  93.8245 266.2922 15.08837014 34366,6917.89,95.438,540.814,538.695,0.0
52873.0,STARLINK-4211,PAYLOAD,2023-01-28 03:24:49,15.08836864,0.0001448,53.2155,76.2842,87.2857,272.8301,0.00028487,4.248e-05,0.0,0 STARLINK-4211,1 52873U 22062AV  23028.14224218  .00004248  00000-0  28487-3 0  9996,2 52873  53.2155  76.2842 0001448  87.2857 272.8301 15.08836864 34976,6917.89,95.438,540.757,538.753,0.0
52873.0,STARLINK-4211,PAYLOAD,2023-01-28 09:46:22,15.08835807,0.000141,53.2159,75.094,93.6836,266.4317,0.00018623,2.677e-05,0.0,0 STARLINK-4211,1 52873U 22062AV  23028.40720280  .00002677  00000-0  18623-3 0  9990,2 52873  53.2159  75.0940 0001410  93.6836 266.4317 15.08835807 34526,6917.893,95.438,540.734,538.783,0.0
52873.0,STARLINK-4211,PAYLOAD,2023-01-29 06:26:22,15.08841447,0.0001404,53.2165,71.2283,96.019,264.0962,0.00018536,2.663e-05,0.0,0 STARLINK-4211,1 52873U 22062AV  23029.26832169  .00002663  00000-0  18536-3 0  9993,2 52873  53.2165  71.2283 0001404  96.0190 264.0962 15.08841447 35140,6917.876,95.437,540.712,538.77,0.0
52873.0,STARLINK-4211,PAYLOAD,2023-01-29 19:09:28,15.08840226,0.0001472,53.2171,68.8497,85.3368,274.7792,0.00013918,1.928e-05,0.0,0 STARLINK-4211,1 52873U 22062AV  23029.79824260  .00001928  00000-0  13918-3 0  9996,2 52873  53.2171  68.8497 0001472  85.3368 274.7792 15.08840226 34736,6917.88,95.438,540.763,538.726,0.0
52873.0,STARLINK-4211,PAYLOAD,2023-01-30 12:38:42,15.08840992,0.0001371,53.2181,65.5788,95.2196,264.8953,0.00012301,1.67e-05,0.0,0 STARLINK-4211,1 52873U 22062AV  23030.52688251  .00001670  00000-0  12301-3 0  9996,2 52873  53.2181  65.5788 0001371  95.2196 264.8953 15.08840992 35337,6917.877,95.437,540.691,538.794,0.0
52873.0,STARLINK-4211,PAYLOAD,2023-01-30 19:00:15,15.0883698,0.000132,53.2178,64.3882,97.5543,262.5599,8.652e-05,1.089e-05,0.0,0 STARLINK-4211,1 52873U 22062AV  23030.79184630  .00001089  00000-0  86520-4 0  9996,2 52873  53.2178  64.3882 0001320  97.5543 262.5599 15.08836980 34882,6917.89,95.438,540.668,538.841,0.0
52873.0,STARLINK-4211,PAYLOAD,2023-01-31 02:57:11,15.08837129,0.0001284,53.2173,62.9017,95.1008,265.0131,2.0014e-05,3.1e-07,0.0,0 STARLINK-4211,1 52873U 22062AV  23031.12304828  .00000031  00000-0  20014-4 0  9999,2 52873  53.2173  62.9017 0001284  95.1008 265.0131 15.08837129 35427,6917.889,95.438,540.642,538.866,0.0
52873.0,STARLINK-4211,PAYLOAD,2023-01-31 10:54:06,15.08843289,0.0001225,53.2176,61.4151,90.1805,269.9327,6.8132e-05,7.97e-06,0.0,0 STARLINK-4211,1 52873U 22062AV  23031.45424349  .00000797  00000-0  68132-4 0  9998,2 52873  53.2176  61.4151 0001225  90.1805 269.9327 15.08843289 34982,6917.87,95.437,540.583,538.888,0.0
52873.0,STARLINK-4211,PAYLOAD,2023-02-01 09:09:30,15.08843881,0.0001263,53.2179,57.2521,97.0168,263.0968,0.00011357,1.52e-05,0.0,0 STARLINK-4211,1 52873U 22062AV  23032.38160299  .00001520  00000-0  11357-3 0  9993,2 52873  53.2179  57.2521 0001263  97.0168 263.0968 15.08843881 35120,6917.869,95.437,540.607,538.86,0.0
52873.0,STARLINK-4211,PAYLOAD,2023-02-01 18:41:49,15.08840965,0.0001279,53.2174,55.4682,84.7709,275.3429,6.0556e-05,6.76e-06,0.0,0 STARLINK-4211,1 52873U 22062AV  23032.77904404  .00000676  00000-0  60556-4 0  9997,2 52873  53.2174  55.4682 0001279  84.7709 275.3429 15.08840965 35672,6917.877,95.437,540.627,538.858,0.0
52873.0,STARLINK-4211,PAYLOAD,2023-02-02 09:00:17,15.08840262,0.000123,53.2189,52.7939,73.9597,286.153,0.00015622,2.199e-05,0.0,0 STARLINK-4211,1 52873U 22062AV  23033.37520569  .00002199  00000-0  15622-3 0  9995,2 52873  53.2189  52.7939 0001230  73.9597 286.1530 15.08840262 35274,6917.88,95.438,540.595,538.894,0.0
52873.0,STARLINK-4211,PAYLOAD,2023-02-03 00:54:09,15.08834717,0.0001379,53.2193,49.8208,77.1032,283.0114,0.00017738,2.536e-05,0.0,0 STARLINK-4211,1 52873U 22062AV  23034.03760773  .00002536  00000-0  17738-3 0  9997,2 52873  53.2193  49.8208 0001379  77.1032 283.0114 15.08834717 35866,6917.897,95.438,540.716,538.808,0.0
52873.0,STARLINK-4211,PAYLOAD,2023-02-03 07:15:41,15.08841285,0.0001211,53.2191,48.631,64.8905,295.2213,0.00012241,1.661e-05,0.0,0 STARLINK-4211,1 52873U 22062AV  23034.30256599  .00001661  00000-0  12241-3 0  9995,2 52873  53.2191  48.6310 0001211  64.8905 295.2213 15.08841285 35416,6917.876,95.437,540.579,538.904,0.0
52873.0,STARLINK-4211,PAYLOAD,2023-02-04 07:06:28,15.08842874,0.0001578,53.2184,44.1695,90.1624,269.9549,6.7458e-05,7.86e-06,0.0,0 STARLINK-4211,1 52873U 22062AV  23035.29616579  .00000786  00000-0  67458-4 0  9990,2 52873  53.2184  44.1695 0001578  90.1624 269.9549 15.08842874 36057,6917.872,95.437,540.828,538.645,0.0
52873.0,STARLINK-4211,PAYLOAD,2023-02-05 05:21:52,15.0883885,0.0001533,53.218,40.0066,90.3235,269.7932,5.3672e-05,5.66e-06,0.0,0 STARLINK-4211,1 52873U 22062AV  23036.22352921  .00000566  00000-0  53672-4 0  9991,2 52873  53.2180  40.0066 0001533  90.3235 269.7932 15.08838850 36199,6917.884,95.438,540.809,538.688,0.0
52873.0,STARLINK-4211,PAYLOAD,2023-02-05 06:57:15,15.08843766,0.0001442,53.2174,39.7075,92.2531,267.8626,6.912e-05,8.12e-06,0.0,0 STARLINK-4211,1 52873U 22062AV  23036.28976519  .00000812  00000-0  69120-4 0  9991,2 52873  53.2174  39.7075 0001442  92.2531 267.8626 15.08843766 35714,6917.869,95.437,540.731,538.736,0.0
52873.0,STARLINK-4211,PAYLOAD,2023-02-06 05:12:39,15.08843304,0.0001328,53.2176,35.5452,89.1574,270.957,7.9768e-05,9.82e-06,0.0,0 STARLINK-4211,1 52873U 22062AV  23037.21712754  .00000982  00000-0  79768-4 0  9991,2 52873  53.2176  35.5452 0001328  89.1574 270.9570 15.08843304 35850,6917.87,95.437,540.654,538.817,0.0
52873.0,STARLINK-4211,PAYLOAD,2023-02-06 22:41:54,15.08845099,0.0001383,53.2175,32.2744,94.0372,266.0779,7.2615e-05,8.68e-06,0.0,0 STARLINK-4211,1 52873U 22062AV  23037.94576709  .00000868  00000-0  72615-4 0  9996,2 52873  53.2175  32.2744 0001383  94.0372 266.0779 15.08845099 36456,6917.865,95.437,540.687,538.773,0.0
52873.0,STARLINK-4211,PAYLOAD,2023-02-07 08:14:12,15.08851969,0.0001259,53.2175,30.4893,89.6095,270.5041,0.00013892,1.924e-05,0.0,0 STARLINK-4211,1 52873U 22062AV  23038.34320097  .00001924  00000-0  13892-3 0  9993,2 52873  53.2175  30.4893 0001259  89.6095 270.5041 15.08851969 36023,6917.844,95.437,540.58,538.838,0.0
52873.0,STARLINK-4211,PAYLOAD,2023-02-08 06:29:36,15.08841714,0.0001548,53.2189,26.326,117.9541,242.1608,0.00011944,1.613e-05,0.0,0 STARLINK-4211,1 52873U 22062AV  23039.27056566  .00001613  00000-0  11944-3 0  9994,2 52873  53.2189  26.3260 0001548 117.9541 242.1608 15.08841714 36652,6917.875,95.437,540.811,538.669,0.0
52873.0,STARLINK-4211,PAYLOAD,2023-02-08 08:04:59,15.08846869,0.0001332,53.2183,26.0265,87.3991,272.7154,0.00010939,1.454e-05,0.0,0 STARLINK-4211,1 52873U 22062AV  23039.33680292  .00001454  00000-0  10939-3 0  9996,2 52873  53.2183  26.0265 0001332  87.3991 272.7154 15.08846869 36176,6917.859,95.437,540.646,538.803,0.0
52873.0,STARLINK-4211,PAYLOAD,2023-02-09 06:20:24,15.08841162,0.0001259,53.2182,21.8659,85.4546,274.659,4.629e-05,4.49e-06,0.0,0 STARLINK-4211,1 52873U 22062AV  23040.26416894  .00000449  00000-0  46290-4 0  9998,2 52873  53.2182  21.8659 0001259  85.4546 274.6590 15.08841162 36804,6917.877,95.437,540.613,538.871,0.0
52873.0,STARLINK-4211,PAYLOAD,2023-02-09 09:31:10,15.08840683,0.0001264,53.2182,21.27,81.9698,278.1437,0.00012852,1.758e-05,0.0,0 STARLINK-4211,1 52873U 22062AV  23040.39664913  .00001758  00000-0  12852-3 0  9999,2 52873  53.2182  21.2700 0001264  81.9698 278.1437 15.08840683 36334,6917.878,95.438,540.618,538.869,0.0
52873.0,STARLINK-4211,PAYLOAD,2023-02-10 03:00:25,15.08840293,0.0001517,53.2199,17.997,92.8089,267.3077,5.7049e-05,6.2e-06,0.0,0 STARLINK-4211,1 52873U 22062AV  23041.12529376  .00000620  00000-0  57049-4 0  9999,2 52873  53.2199  17.9970 0001517  92.8089 267.3077 15.08840293 36448,6917.879,95.438,540.794,538.695,0.0
52873.0,STARLINK-4211,PAYLOAD,2023-02-10 20:29:39,15.08843723,9.72e-05,53.218,14.7296,108.0424,252.0674,0.00029994,4.489e-05,0.0,0 STARLINK-4211,1 52873U 22062AV  23041.85393400  .00004489  00000-0  29994-3 0  9990,2 52873  53.2180  14.7296 0000972 108.0424 252.0674 15.08843723 36558,6917.869,95.437,540.406,539.062,0.0
52873.0,STARLINK-4211,PAYLOAD,2023-02-11 04:26:34,15.08866225,0.000113,53.2179,13.2422,107.6324,252.4792,0.00057328,8.854e-05,0.0,0 STARLINK-4211,1 52873U 22062AV  23042.18512249  .00008854  00000-0  57328-3 0  9993,2 52873  53.2179  13.2422 0001130 107.6324 252.4792 15.08866225 37099,6917.8,95.436,540.447,538.884,0.0
52873.0,STARLINK-4211,PAYLOAD,2023-02-11 06:01:57,15.08869521,0.0001132,53.2178,12.9445,107.504,252.6075,0.00062802,9.729e-05,0.0,0 STARLINK-4211,1 52873U 22062AV  23042.25136057  .00009729  00000-0  62802-3 0  9995,2 52873  53.2178  12.9445 0001132 107.5040 252.6075 15.08869521 36610,6917.79,95.436,540.438,538.872,0.0
